CCSDS_OMM_VERS,COMMENT,CREATION_DATE,ORIGINATOR,OBJECT_NAME,OBJECT_ID,CENTER_NAME,REF_FRAME,TIME_SYSTEM,MEAN_ELEMENT_THEORY,EPOCH,MEAN_MOTION,ECCENTRICITY,INCLINATION,RA_OF_ASC_NODE,ARG_OF_PERICENTER,MEAN_ANOMALY,EPHEMERIS_TYPE,CLASSIFICATION_TYPE,NORAD_CAT_ID,ELEMENT_SET_NO,REV_AT_EPOCH,BSTAR,MEAN_MOTION_DOT,MEAN_MOTION_DDOT,SEMIMAJOR_AXIS,PERIOD,APOAPSIS,PERIAPSIS,OBJECT_TYPE,RCS_SIZE,COUNTRY_CODE,LAUNCH_DATE,SITE,DECAY_DATE,FILE,GP_ID,TLE_LINE0,TLE_LINE1,TLE_LINE2
"3.0","GENERATED VIA SPACE-TRACK.ORG API","2026-03-25T17:29:05","18 SPCS","PSLV DEB","2001-049DG","EARTH","TEME","UTC","SGP4","2026-03-25T08:50:27.321792","14.70592212","0.00464304","98.3696","119.1249","154.7032","220.2447","0","U","27160","999","29873","0.00007267631300","0.00000394","0.0000000000000","7037.315","97.920","691.855","626.506","DEBRIS","SMALL","IND","2001-10-22","SRI","","5096884","317007484","0 PSLV DEB","1 27160U 01049DG  26084.36837178  .00000394  00000-0  72676-4 0  9991","2 27160  98.3696 119.1249 0046430 154.7032 220.2447 14.70592212298738"
"3.0","GENERATED VIA SPACE-TRACK.ORG API","2026-03-25T17:29:05","18 SPCS","PSLV DEB","2001-049KB","EARTH","TEME","UTC","SGP4","2026-03-25T15:23:33.702720","14.79773448","0.00387458","98.2178","143.9537","41.0964","111.4387","0","U","27305","999","30108","0.00021593405000","0.00001588","0.0000000000000","7008.176","97.312","657.195","602.888","DEBRIS","SMALL","IND","2001-10-22","SRI","","5096884","317007987","0 PSLV DEB","1 27305U 01049KB  26084.64136230  .00001588  00000-0  21593-3 0  9991","2 27305  98.2178 143.9537 0038746  41.0964 111.4387 14.79773448301089"
"3.0","GENERATED VIA SPACE-TRACK.ORG API","2026-03-25T04:32:27","18 SPCS","CZ-4 DEB","1999-057MM","EARTH","TEME","UTC","SGP4","2026-03-24T09:54:40.690944","14.61069030","0.00754420","98.3965","139.9382","284.5918","74.6924","0","U","27492","999","31104","0.00074937319000","0.00003780","0.0000000000000","7067.861","98.558","743.048","636.405","DEBRIS","SMALL","PRC","1999-10-14","TSC","","5096755","316974819","0 CZ-4 DEB","1 27492U 99057MM  26083.41297096  .00003780  00000-0  74937-3 0  9992","2 27492  98.3965 139.9382 0075442 284.5918  74.6924 14.61069030311041"
"3.0","GENERATED VIA SPACE-TRACK.ORG API","2026-03-25T17:29:05","18 SPCS","CZ-4 DEB","1999-057MP","EARTH","TEME","UTC","SGP4","2026-03-25T13:01:11.256096","14.68137262","0.00256700","98.4698","119.1434","348.3799","168.2048","0","U","27536","999","27245","0.00062694358000","0.00003569","0.0000000000000","7045.158","98.083","685.108","648.938","DEBRIS","SMALL","PRC","1999-10-14","TSC","","5096884","317007522","0 CZ-4 DEB","1 27536U 99057MP  26084.54249139  .00003569  00000-0  62694-3 0  9993","2 27536  98.4698 119.1434 0025670 348.3799 168.2048 14.68137262272454"
"3.0","GENERATED VIA SPACE-TRACK.ORG API","2026-03-25T04:32:27","18 SPCS","PSLV DEB","2001-049MY","EARTH","TEME","UTC","SGP4","2026-03-24T20:02:40.320960","14.78005830","0.00419503","98.2664","120.2979","239.3298","120.3775","0","U","27580","999","26841","0.00011080417000","0.00000753","0.0000000000000","7013.763","97.429","665.051","606.205","DEBRIS","SMALL","IND","2001-10-22","SRI","","5096755","316974339","0 PSLV DEB","1 27580U 01049MY  26083.83518890  .00000753  00000-0  11080-3 0  9995","2 27580  98.2664 120.2979 0041950 239.3298 120.3775 14.78005830268416"
"3.0","GENERATED VIA SPACE-TRACK.ORG API","2026-03-25T17:29:05","18 SPCS","PSLV DEB","2001-049ND","EARTH","TEME","UTC","SGP4","2026-03-25T00:48:00.090432","14.86540173","0.00502046","98.2974","113.1952","200.8026","159.1146","0","U","27585","999","28951","0.00024422736000","0.00002149","0.0000000000000","6986.893","96.869","643.835","573.680","DEBRIS","SMALL","IND","2001-10-22","SRI","","5096884","317007533","0 PSLV DEB","1 27585U 01049ND  26084.03333438  .00002149  00000-0  24423-3 0  9992","2 27585  98.2974 113.1952 0050205 200.8026 159.1146 14.86540173289511"
"3.0","GENERATED VIA SPACE-TRACK.ORG API","2026-03-25T17:29:05","18 SPCS","ARIANE 1 DEB","1986-019VN","EARTH","TEME","UTC","SGP4","2026-03-25T10:45:34.799616","14.54933917","0.00367992","98.2557","64.1404","215.2858","298.3260","0","U","27596","999","60197","0.00049747126000","0.00002112","0.0000000000000","7087.716","98.974","735.664","683.499","DEBRIS","SMALL","FR","1986-02-22","FRGUI","","5096884","317007535","0 ARIANE 1 DEB","1 27596U 86019VN  26084.44831944  .00002112  00000-0  49747-3 0  9990","2 27596  98.2557  64.1404 0036799 215.2858 298.3260 14.54933917601970"
"3.0","GENERATED VIA SPACE-TRACK.ORG API","2026-03-25T17:29:05","18 SPCS","PSLV DEB","2001-049NQ","EARTH","TEME","UTC","SGP4","2026-03-25T10:29:22.749504","14.89577309","0.00522825","98.0932","143.7369","45.6518","314.8965","0","U","27653","999","27683","0.00027271564000","0.00002608","0.0000000000000","6977.392","96.672","635.737","562.778","DEBRIS","SMALL","IND","2001-10-22","SRI","","5096884","317007554","0 PSLV DEB","1 27653U 01049NQ  26084.43706886  .00002608  00000-0  27272-3 0  9998","2 27653  98.0932 143.7369 0052282  45.6518 314.8965 14.89577309276832"
"3.0","GENERATED VIA SPACE-TRACK.ORG API","2026-03-25T17:29:05","18 SPCS","PSLV DEB","2001-049NS","EARTH","TEME","UTC","SGP4","2026-03-25T04:49:36.407712","14.71669329","0.01097537","97.2862","353.9441","238.0123","121.0382","0","U","27655","999","24923","0.00083882552000","0.00005698","0.0000000000000","7033.881","97.848","732.945","578.547","DEBRIS","SMALL","IND","2001-10-22","SRI","","5096884","317008055","0 PSLV DEB","1 27655U 01049NS  26084.20111583  .00005698  00000-0  83883-3 0  9991","2 27655  97.2862 353.9441 0109754 238.0123 121.0382 14.71669329249230"
"3.0","GENERATED VIA SPACE-TRACK.ORG API","2026-03-25T17:29:05","18 SPCS","SL-8 DEB","2002-054D","EARTH","TEME","UTC","SGP4","2026-03-25T14:18:28.284480","14.76545816","0.00285966","98.2751","317.2763","99.2571","261.1875","0","U","27768","999","24298","0.00040223426000","0.00002769","0.0000000000000","7018.386","97.525","660.321","620.180","DEBRIS","SMALL","CIS","2002-11-28","PKMTR","","5096884","317008087","0 SL-8 DEB","1 27768U 02054D   26084.59616070  .00002769  00000-0  40223-3 0  9993","2 27768  98.2751 317.2763 0028597  99.2571 261.1875 14.76545816242989"
"3.0","GENERATED VIA SPACE-TRACK.ORG API","2026-03-25T17:29:05","18 SPCS","SL-8 DEB","2002-054E","EARTH","TEME","UTC","SGP4","2026-03-25T09:11:45.894048","14.81829009","0.00268939","98.2385","315.2288","338.6166","21.3920","0","U","27769","999","24523","0.00044716933000","0.00003498","0.0000000000000","7001.694","97.177","642.389","604.729","DEBRIS","SMALL","CIS","2002-11-28","PKMTR","","5096884","317007587","0 SL-8 DEB","1 27769U 02054E   26084.38317007  .00003498  00000-0  44717-3 0  9991","2 27769  98.2385 315.2288 0026894 338.6166  21.3920 14.81829009245234"
"3.0","GENERATED VIA SPACE-TRACK.ORG API","2026-03-25T04:32:27","18 SPCS","CZ-4 DEB","1999-057MX","EARTH","TEME","UTC","SGP4","2026-03-24T15:27:16.599168","14.69394511","0.00645850","98.4139","159.7084","357.8127","2.2786","0","U","28067","999","23124","0.00062774890000","0.00003778","0.0000000000000","7041.139","98.000","708.479","617.529","DEBRIS","SMALL","PRC","1999-10-14","TSC","","5096755","316974459","0 CZ-4 DEB","1 28067U 99057MX  26083.64394212  .00003778  00000-0  62775-3 0  9998","2 28067  98.4139 159.7084 0064585 357.8127   2.2786 14.69394511231244"
"3.0","GENERATED VIA SPACE-TRACK.ORG API","2026-03-25T17:29:05","18 SPCS","CZ-4 DEB","1999-057NA","EARTH","TEME","UTC","SGP4","2026-03-25T10:30:43.928352","14.60082561","0.00603179","98.4462","141.4483","194.4100","165.5382","0","U","28070","999","24274","0.00041179954000","0.00001979","0.0000000000000","7071.044","98.625","735.560","650.258","DEBRIS","SMALL","PRC","1999-10-14","TSC","","5096884","317008154","0 CZ-4 DEB","1 28070U 99057NA  26084.43800843  .00001979  00000-0  41180-3 0  9990","2 28070  98.4462 141.4483 0060318 194.4100 165.5382 14.60082561242746"
"3.0","GENERATED VIA SPACE-TRACK.ORG API","2026-03-25T17:29:05","18 SPCS","DMSP 5D-3 F16 DEB","2003-048E","EARTH","TEME","UTC","SGP4","2026-03-25T02:07:53.476896","14.76275349","0.00098269","98.4991","116.8717","81.4251","278.8070","0","U","28081","999","16478","0.00210973100000","0.00014602","0.0000000000000","7019.243","97.543","648.005","634.210","DEBRIS","MEDIUM","US","2003-10-18","AFWTR","","5096884","317007657","0 DMSP 5D-3 F16 DEB","1 28081U 03048E   26084.08881339  .00014602  00000-0  21097-2 0  9998","2 28081  98.4991 116.8717 0009827  81.4251 278.8070 14.76275349164785"
"3.0","GENERATED VIA SPACE-TRACK.ORG API","2026-03-25T04:32:27","18 SPCS","DMSP 5D-2 F11 DEB","1991-082AG","EARTH","TEME","UTC","SGP4","2026-03-24T13:20:41.401536","14.86807773","0.00225967","98.7482","191.5806","116.9071","243.4454","0","U","28319","999","13968","0.00417395910000","0.00037501","0.0000000000000","6986.054","96.852","623.705","592.133","DEBRIS","SMALL","US","1991-11-28","AFWTR","","5096755","316975007","0 DMSP 5D-2 F11 DEB","1 28319U 91082AG  26083.55603474  .00037501  00000-0  41740-2 0  9990","2 28319  98.7482 191.5806 0022597 116.9071 243.4454 14.86807773139687"
"3.0","GENERATED VIA SPACE-TRACK.ORG API","2026-03-25T04:32:27","18 SPCS","DMSP 5D-2 F11 DEB","1991-082AN","EARTH","TEME","UTC","SGP4","2026-03-24T15:23:08.830752","14.79537330","0.00317424","98.5689","328.0652","32.5301","356.6890","0","U","28325","999","13033","0.00395633500000","0.00029915","0.0000000000000","7008.922","97.328","653.035","608.539","DEBRIS","SMALL","US","1991-11-28","AFWTR","","5096755","316974509","0 DMSP 5D-2 F11 DEB","1 28325U 91082AN  26083.64107443  .00029915  00000-0  39563-2 0  9992","2 28325  98.5689 328.0652 0031742  32.5301 356.6890 14.79537330130333"
